NORAD_CAT_ID,OBJECT_NAME,OBJECT_TYPE,EPOCH,MEAN_MOTION,ECCENTRICITY,INCLINATION,RA_OF_ASC_NODE,ARG_OF_PERICENTER,MEAN_ANOMALY,BSTAR,MEAN_MOTION_DOT,MEAN_MOTION_DDOT,TLE_LINE0,TLE_LINE1,TLE_LINE2,SEMIMAJOR_AXIS,PERIOD,APOGEE,PERIGEE,DECAYED
52140.0,STARLINK-3682,PAYLOAD,2022-10-10 08:13:03,15.088404999999998,0.0001855999999999,53.2181,264.1863,48.9858,311.1294,8.8369e-05,1.119e-05,0.0,0 STARLINK-3682,1 52140U 22029BE  22283.34240300  .00001119  00000-0  88369-4 0  9990,2 52140  53.2181 264.1863 0001856  48.9858 311.1294 15.08840500 32788,6917.879,95.438,541.028,538.46,0.0
52140.0,STARLINK-3682,PAYLOAD,2022-10-10 16:09:59,15.08839825,0.0001925,53.2181,262.6998,51.3231,308.7933,0.00018952,2.729e-05,0.0,0 STARLINK-3682,1 52140U 22029BE  22283.67360470  .00002729  00000-0  18952-3 0  9995,2 52140  53.2181 262.6998 0001925  51.3231 308.7933 15.08839825 32836,6917.880999999999,95.438,541.078,538.414,0.0
52140.0,STARLINK-3682,PAYLOAD,2022-10-11 09:39:14,15.08832724,0.0001919,53.2192,259.4306,53.5122,306.6047,1.5325e-05,-4.4e-07,0.0,0 STARLINK-3682,1 52140U 22029BE  22284.40225156 -.00000044  00000-0  15325-4 0  9999,2 52140  53.2192 259.4306 0001919  53.5122 306.6047 15.08832724 32947,6917.903,95.438,541.095,538.44,0.0
52140.0,STARLINK-3682,PAYLOAD,2022-10-12 09:30:00,15.08863523,0.0001805,53.2192,254.9692,53.8558,306.2601,-0.00023165,-3.975e-05,0.0,0 STARLINK-3682,1 52140U 22029BE  22285.39584150 -.00003975  00000-0 -23165-3 0  9997,2 52140  53.2192 254.9692 0001805  53.8558 306.2601 15.08863523 33095,6917.808000000001,95.436,540.922,538.425,0.0
52140.0,STARLINK-3682,PAYLOAD,2022-10-13 04:34:39,15.08835736,0.0002032,53.219,251.4008,59.754,300.3653,3.0374e-05,1.95e-06,0.0,0 STARLINK-3682,1 52140U 22029BE  22286.19073531  .00000195  00000-0  30374-4 0  9992,2 52140  53.2190 251.4008 0002032  59.7540 300.3653 15.08835736 33216,6917.893,95.438,541.164,538.3530000000002,0.0
52140.0,STARLINK-3682,PAYLOAD,2022-10-13 07:45:25,15.08835232,0.0001892,53.2189,250.806,55.8423,304.2749,1.5492e-05,-4.2e-07,0.0,0 STARLINK-3682,1 52140U 22029BE  22286.32321615 -.00000042  00000-0  15492-4 0  9992,2 52140  53.2189 250.8060 0001892  55.8423 304.2749 15.08835232 33237,6917.895,95.438,541.069,538.451,0.0
52140.0,STARLINK-3682,PAYLOAD,2022-10-14 07:36:12,15.08840961,0.0001754,53.2186,246.3467,57.4008,302.7153,9.445e-05,1.215e-05,0.0,0 STARLINK-3682,1 52140U 22029BE  22287.31681173  .00001215  00000-0  94450-4 0  9993,2 52140  53.2186 246.3467 0001754  57.4008 302.7153 15.08840961 33382,6917.877,95.437,540.956,538.529,0.0
52140.0,STARLINK-3682,PAYLOAD,2022-10-15 07:26:59,15.08843145,0.0001614,53.2187,241.8865,54.6926,305.4217,9.7883e-05,1.27e-05,0.0,0 STARLINK-3682,1 52140U 22029BE  22288.31040882  .00001270  00000-0  97883-4 0  9994,2 52140  53.2187 241.8865 0001614  54.6926 305.4217 15.08843145 33533,6917.871,95.437,540.852,538.619,0.0
52140.0,STARLINK-3682,PAYLOAD,2022-10-16 07:17:47,15.08830891,0.0001636999999999,53.2189,237.4264,61.3184,298.7973,-5.4398e-06,-3.75e-06,0.0,0 STARLINK-3682,1 52140U 22029BE  22289.30402092 -.00000375  00000-0 -54398-5 0  9991,2 52140  53.2189 237.4264 0001637  61.3184 298.7973 15.08830891 33688,6917.908,95.438,540.906,538.641,0.0
52140.0,STARLINK-3682,PAYLOAD,2022-10-17 05:33:11,15.08838335,0.0001647,53.2192,233.2634,54.0632,306.0512,2.6575e-05,1.35e-06,0.0,0 STARLINK-3682,1 52140U 22029BE  22290.23137946  .00000135  00000-0  26575-4 0  9995,2 52140  53.2192 233.2634 0001647  54.0632 306.0512 15.08838335 33824,6917.885,95.438,540.89,538.611,0.0
52140.0,STARLINK-3682,PAYLOAD,2022-10-17 19:51:39,15.08838702,0.0001704,53.2209,230.5874,61.6722,298.4442,7.8018e-05,9.54e-06,0.0,0 STARLINK-3682,1 52140U 22029BE  22290.82753759  .00000954  00000-0  78018-4 0  9994,2 52140  53.2209 230.5874 0001704  61.6722 298.4442 15.08838702 33911,6917.884,95.438,540.928,538.571,0.0
52140.0,STARLINK-3682,PAYLOAD,2022-10-18 05:23:58,15.0883549,0.0001647,53.2203,228.8033,66.3766,293.7399,9.4228e-05,1.212e-05,0.0,0 STARLINK-3682,1 52140U 22029BE  22291.22497935  .00001212  00000-0  94228-4 0  9999,2 52140  53.2203 228.8033 0001647  66.3766 293.7399 15.08835490 33974,6917.894,95.438,540.899,538.62,0.0
52140.0,STARLINK-3682,PAYLOAD,2022-10-18 13:20:54,15.08830317,0.0001648,53.2195,227.3163,64.9632,295.1531,4.2938e-05,3.95e-06,0.0,0 STARLINK-3682,1 52140U 22029BE  22291.55618542  .00000395  00000-0  42938-4 0  9996,2 52140  53.2195 227.3163 0001648  64.9632 295.1531 15.08830317 34023,6917.91,95.438,540.915,538.635,0.0
52140.0,STARLINK-3682,PAYLOAD,2022-10-19 13:11:41,15.08840004,0.0001675,53.2196,222.8561,62.4429,297.6733,-1.9263e-05,-5.95e-06,0.0,0 STARLINK-3682,1 52140U 22029BE  22292.54978588 -.00000595  00000-0 -19263-4 0  9994,2 52140  53.2196 222.8561 0001675  62.4429 297.6733 15.08840004 34174,6917.88,95.438,540.904,538.587,0.0
52140.0,STARLINK-3682,PAYLOAD,2022-10-20 05:05:32,15.08842158,0.0001663,53.2195,219.8824,61.4179,298.6981,3.1551e-05,2.14e-06,0.0,0 STARLINK-3682,1 52140U 22029BE  22293.21218183  .00000214  00000-0  31551-4 0  9997,2 52140  53.2195 219.8824 0001663  61.4179 298.6981 15.08842158 34278,6917.874,95.437,540.889,538.5880000000002,0.0
52140.0,STARLINK-3682,PAYLOAD,2022-10-21 01:45:33,15.08835263,0.0001663,53.2196,216.0172,59.6841,300.4316,9.7046e-05,1.257e-05,0.0,0 STARLINK-3682,1 52140U 22029BE  22294.07330398  .00001257  00000-0  97046-4 0  9994,2 52140  53.2196 216.0172 0001663  59.6841 300.4316 15.08835263 34407,6917.895,95.438,540.91,538.609,0.0
52140.0,STARLINK-3682,PAYLOAD,2022-10-21 11:17:52,15.0883283,0.0001645,53.2195,214.2332,57.3811,302.7340000000001,-2.1452e-05,-6.29e-06,0.0,0 STARLINK-3682,1 52140U 22029BE  22294.47075029 -.00000629  00000-0 -21452-4 0  9997,2 52140  53.2195 214.2332 0001645  57.3811 302.7340 15.08832830 34461,6917.901999999999,95.438,540.905,538.629,0.0
52140.0,STARLINK-3682,PAYLOAD,2022-10-22 01:36:19,15.08847746,0.0001629999999999,53.2191,211.5567,56.4624,303.6524,6.2611e-05,7.09e-06,0.0,0 STARLINK-3682,1 52140U 22029BE  22295.06689752  .00000709  00000-0  62611-4 0  9996,2 52140  53.2191 211.5567 0001630  56.4624 303.6524 15.08847746 34559,6917.857,95.437,540.849,538.594,0.0
52140.0,STARLINK-3682,PAYLOAD,2022-10-22 17:30:11,15.08837817,0.000149,53.2188,208.583,57.8155,302.2981,-7.3714e-06,-4.05e-06,0.0,0 STARLINK-3682,1 52140U 22029BE  22295.72930534 -.00000405  00000-0 -73714-5 0  9998,2 52140  53.2188 208.5830 0001490  57.8155 302.2981 15.08837817 34653,6917.887,95.438,540.783,538.721,0.0
52140.0,STARLINK-3682,PAYLOAD,2022-10-23 10:59:25,15.08848845,0.0001639,53.2191,205.3123,54.5329,305.5816,0.00017867,2.557e-05,0.0,0 STARLINK-3682,1 52140U 22029BE  22296.45793231  .00002557  00000-0  17867-3 0  9993,2 52140  53.2191 205.3123 0001639  54.5329 305.5816 15.08848845 34767,6917.853,95.437,540.852,538.585,0.0
52140.0,STARLINK-3682,PAYLOAD,2022-10-24 04:28:39,15.08849872,0.0001754,53.2195,202.042,61.0494,299.0674,0.00014468,2.016e-05,0.0,0 STARLINK-3682,1 52140U 22029BE  22297.18656929  .00002016  00000-0  14468-3 0  9990,2 52140  53.2195 202.0420 0001754  61.0494 299.0674 15.08849872 34871,6917.85,95.437,540.929,538.502,0.0
52140.0,STARLINK-3682,PAYLOAD,2022-10-24 17:11:46,15.08829873,0.0002118,53.2189,199.6627,59.3249,300.7952,-5.2992e-05,-1.131e-05,0.0,0 STARLINK-3682,1 52140U 22029BE  22297.71651083 -.00001131  00000-0 -52992-4 0  9999,2 52140  53.2189 199.6627 0002118  59.3249 300.7952 15.08829873 34954,6917.911,95.438,541.242,538.311,0.0
52140.0,STARLINK-3682,PAYLOAD,2022-10-25 10:41:01,15.08832876,0.0001718,53.2194,196.3925,60.1922,299.9241,-9.045e-05,-1.727e-05,0.0,0 STARLINK-3682,1 52140U 22029BE  22298.44515523 -.00001727  00000-0 -90450-4 0  9990,2 52140  53.2194 196.3925 0001718  60.1922 299.9241 15.08832876 35068,6917.901999999999,95.438,540.956,538.5790000000002,0.0
52140.0,STARLINK-3682,PAYLOAD,2022-10-25 17:02:33,15.08836673,0.0001851,53.2193,195.203,57.684,302.4331,-8.891799999999999e-05,-1.703e-05,0.0,0 STARLINK-3682,1 52140U 22029BE  22298.71011379 -.00001703  00000-0 -88918-4 0  9990,2 52140  53.2193 195.2030 0001851  57.6840 302.4331 15.08836673 35104,6917.891,95.438,541.036,538.475,0.0
52140.0,STARLINK-3682,PAYLOAD,2022-10-26 02:34:52,15.08843406,0.0001916,53.2193,193.4195,58.4364,301.6815,-1.3056e-06,-3.09e-06,0.0,0 STARLINK-3682,1 52140U 22029BE  22299.10754799 -.00000309  00000-0 -13056-5 0  9997,2 52140  53.2193 193.4195 0001916  58.4364 301.6815 15.08843406 35164,6917.87,95.437,541.06,538.41,0.0
52140.0,STARLINK-3682,PAYLOAD,2022-10-26 10:31:47,15.08848371,0.0001902,53.2194,191.9328,59.7759,300.3422,3.4302e-05,2.58e-06,0.0,0 STARLINK-3682,1 52140U 22029BE  22299.43874388  .00000258  00000-0  34302-4 0  9997,2 52140  53.2194 191.9328 0001902  59.7759 300.3422 15.08848371 35215,6917.855,95.437,541.036,538.404,0.0
52140.0,STARLINK-3682,PAYLOAD,2022-10-27 02:25:39,15.08824345,0.000181,53.2194,188.9593,63.3247,296.793,0.00029725,4.444e-05,0.0,0 STARLINK-3682,1 52140U 22029BE  22300.10115693  .00004444  00000-0  29725-3 0  9994,2 52140  53.2194 188.9593 0001810  63.3247 296.7930 15.08824345 35314,6917.928000000001,95.439,541.045,538.5409999999998,0.0
52140.0,STARLINK-3682,PAYLOAD,2022-10-27 10:22:35,15.08842165,0.000186,53.2194,187.4727,62.8407,297.2775,0.00019453,2.809e-05,0.0,0 STARLINK-3682,1 52140U 22029BE  22300.43234994  .00002809  00000-0  19453-3 0  9996,2 52140  53.2194 187.4727 0001860  62.8407 297.2775 15.08842165 35362,6917.874,95.437,541.025,538.452,0.0
52140.0,STARLINK-3682,PAYLOAD,2022-10-27 19:54:52,15.08855572,0.0001841999999999,53.2193,185.6883,62.9321,297.1859,0.00021441,3.127e-05,0.0,0 STARLINK-3682,1 52140U 22029BE  22300.82977936  .00003127  00000-0  21441-3 0  9993,2 52140  53.2193 185.6883 0001842  62.9321 297.1859 15.08855572 35425,6917.833000000001,95.437,540.972,538.424,0.0
